KUIPER-00125            
1 65954U 25228H   25346.38364610  .00048484  00000+0  13419-2 0  9996
2 65954  51.8808  22.1637 0006106  14.8870 345.2295 15.36498788 10362
KUIPER-00126            
1 65955U 25228J   25346.91668981 -.00949603  00000+0 -94729-1 0  9991
2 65955  51.9264  24.8992 0006025  34.5855 214.7029 14.93917338  5879
KUIPER-00127            
1 65956U 25228K   25346.91668981  .00029111  00000+0  21001-2 0  9997
2 65956  51.9035  23.0875 0006094  57.4935 129.1792 15.03881685  4799
KUIPER-00128            
1 65957U 25228L   25346.91668981 -.00955162  00000+0 -49144-1 0  9991
2 65957  51.8846  20.6661 0003626  26.4952 201.3760 15.18726617  5819
KUIPER-00129            
1 65958U 25228M   25346.83599615  .00083753  00000+0  23260-2 0  9998
2 65958  51.8812  19.9563 0008900  10.3913 349.7255 15.36123491 10435
KUIPER-00130            
1 65959U 25228N   25346.88317156 -.00314582  00000+0 -11261-1 0  9998
2 65959  51.8815  20.2588 0007301  26.6871 333.4487 15.29557264 10436
KUIPER-00134            
1 65960U 25228P   25346.33222271  .00023276  00000+0  66432-3 0  9990
2 65960  51.8772  22.5646 0006435  25.4472 334.6830 15.35909116 10351
KUIPER-00135            
1 65961U 25228Q   25346.91668981 -.00831958  00000+0 -34576-1 0  9995
2 65961  51.8867  20.2361 0006854   4.7958  94.4104 15.25946197  5831
